{"fetched_at":"2026-04-27T21:03:10Z","count":13677,"tles":[{"name":"STARLINK-4370","line1":"1 53231U 22084AU  26117.12450840 -.00001194  00000+0 -78551-4 0  9997","line2":"2 53231  97.5678 178.9387 0000991 120.8973 239.2351 15.05660190206679","category":"Starlink"},{"name":"TURKSAT 6A","line1":"1 60233U 24127A   26117.20044858  .00000136  00000+0  00000+0 0  9996","line2":"2 60233   0.0337 169.0458 0001111 176.5038 343.7932  1.00272005  6505","category":"Other"},{"name":"FENGYUN 1C DEB","line1":"1 31244U 99025BMA 26101.93432075  .00000171  00000+0  12468-3 0  9994","line2":"2 31244  99.0126 170.1937 0102200 199.2863 160.4425 14.06434964593295","category":"Weather"},{"name":"STARLINK-2008","line1":"1 47603U 21009BH  23362.39807634  .00001121  00000+0  94184-4 0  9992","line2":"2 47603  53.0538  43.2455 0001606  74.6409 285.4757 15.06392789160186","category":"Starlink"},{"name":"STARLINK-5509","line1":"1 57263U 23094AX  26116.72631119  .00000116  00000+0  13751-4 0  9995","line2":"2 57263  43.0035 119.2963 0001479 268.4173  91.6509 15.27577336154469","category":"Starlink"},{"name":"SBS 5","line1":"1 19484U 88081B   26105.07555616 -.00000285  00000+0  00000+0 0  9994","line2":"2 19484  14.5918   1.4094 0007850 324.5077 213.0599  0.99792756 45835","category":"Other"},{"name":"ONEWEB-0510","line1":"1 54128U 22138R   26116.99566138  .00002176  00000+0  53194-2 0  9998","line2":"2 54128  87.9139 284.6506 0001578 107.7939 252.3367 13.20765135172525","category":"Other"},{"name":"STARLINK-2225","line1":"1 48574U 21041X   26117.00002315 -.00020208  00000+0 -64112-3 0  9994","line2":"2 48574  53.1576 236.4069 0001180  74.0265 214.9658 15.31703063  5875","category":"Starlink"},{"name":"STARLINK-30569","line1":"1 58068U 23158T   26116.96988363 -.00000192  00000+0  25671-5 0  9992","line2":"2 58068  43.0019 117.7991 0001403 269.5786  90.4904 15.27575957140916","category":"Starlink"},{"name":"STARLINK-3586","line1":"1 51795U 22017AD  26117.20336575 -.00000478  00000+0 -11951-4 0  9998","line2":"2 51795  53.2157 131.5335 0001188  72.9870 287.1253 15.08835107231242","category":"Starlink"},{"name":"TRANSPORTER-10 OBJECT AW","line1":"1 59142U 24043AW  26116.95961545  .00193741  00000+0  85713-3 0  9995","line2":"2 59142  97.5366 272.4437 0003337 288.7336  71.3571 15.83919890120449","category":"Other"},{"name":"FENGYUN 1C DEB","line1":"1 29906U 99025HC  26104.75776091  .00004287  00000+0  10638-2 0  9996","line2":"2 29906  98.7048 217.3076 0036955 136.9861 223.4232 14.51979457999414","category":"Weather"},{"name":"COSMOS 2546","line1":"1 45608U 20031A   26114.68387515 -.00000056  00000+0  00000+0 0  9996","line2":"2 45608  63.1549  73.4697 7060293 266.0352  17.9786  2.00619354 43397","category":"Other"},{"name":"ONEWEB-0547","line1":"1 56049U 23043D   26117.07734894  .00000068  00000+0  13356-3 0  9999","line2":"2 56049  87.9225 254.1479 0001834  93.8853 266.2491 13.21826092151475","category":"Other"},{"name":"STARLINK-11335 [DTC]","line1":"1 61687U 24195A   26117.10897414  .00001481  00000+0  17071-4 0  9993","line2":"2 61687  53.1574 147.9191 0000689  46.4390 313.6685 15.69710471 86632","category":"Starlink"},{"name":"HULIANWANG DIGUI-142","line1":"1 67440U 26007F   26117.09223171 -.00000091  00000+0  70969-4 0  9993","line2":"2 67440  50.0124 268.9817 0000558 178.4375 181.6499 13.29331194 13995","category":"Other"},{"name":"STARLINK-11227 [DTC]","line1":"1 60303U 24133C   26117.14813056  .00005283  00000+0  48492-4 0  9998","line2":"2 60303  53.1600 267.4448 0001097 122.9204 237.1920 15.69680976101420","category":"Starlink"},{"name":"STARLINK-34294","line1":"1 64599U 25137F   26116.83224151  .00022431  00000+0  76684-3 0  9998","line2":"2 64599  53.1590 111.7647 0001352  75.5655 284.5496 15.30214184 48109","category":"Starlink"},{"name":"FENGYUN 1C DEB","line1":"1 31329U 99025BQH 26102.18406181  .00004479  00000+0  74419-3 0  9994","line2":"2 31329  98.9071 103.8764 0054228  74.1363 286.5808 14.69738615 43833","category":"Weather"},{"name":"STARLINK-2083","line1":"1 47676U 21012BJ  26117.18384595  .00119819  00000+0  99752-3 0  9999","line2":"2 47676  53.0472  44.3401 0002528 122.4258 237.7003 15.69267137289659","category":"Starlink"},{"name":"STARLINK-6373","line1":"1 57345U 23099T   26117.16668980  .00104532  00000+0  39717-2 0  9991","line2":"2 57345  43.0004 341.9357 0001909 248.3293  37.7578 15.25723578  5804","category":"Starlink"},{"name":"STARLINK-11546 [DTC]","line1":"1 62835U 25019G   26117.13261409  .00324247  00000+0  24314-2 0  9991","line2":"2 62835  43.0017  14.5129 0002568 269.2028  90.8546 15.70856400 71492","category":"Starlink"},{"name":"TRANSPORTER-16 OBJECT CM","line1":"1 68499U 26067CM  26115.53278539  .00001402  00000+0  14597-3 0  9999","line2":"2 68499  97.7549  74.5965 0001314 142.0818 218.0494 14.91405028  3878","category":"Other"},{"name":"STARLINK-34893","line1":"1 65752U 25216U   26116.70842184  .00029852  00000+0  10158-2 0  9993","line2":"2 65752  53.1601 109.9766 0001375 100.3415 259.7741 15.30207165 33866","category":"Starlink"},{"name":"COSMOS 2085","line1":"1 20693U 90061A   26104.72255654 -.00000074  00000+0  00000+0 0  9995","line2":"2 20693  12.7316 336.9390 0014164  29.5881 168.6464  1.00262937130867","category":"Other"},{"name":"STARLINK-5258","line1":"1 54195U 22141AQ  26116.42826344  .00000300  00000+0  36931-4 0  9991","line2":"2 54195  53.2156 139.8935 0001035  87.2876 272.8234 15.08831372193204","category":"Starlink"},{"name":"STARLINK-2653","line1":"1 48665U 21044AD  23362.45702154  .00001524  00000+0  12120-3 0  9994","line2":"2 48665  53.0538 112.9841 0001264  66.8785 293.2337 15.06389227143835","category":"Starlink"},{"name":"STARLINK-30770","line1":"1 58132U 23162Q   26116.99314183  .00000023  00000+0  10378-4 0  9994","line2":"2 58132  43.0046 219.7502 0001704 266.8082  93.2575 15.27572022139689","category":"Starlink"},{"name":"STARLINK-3578","line1":"1 51868U 22022S   26117.12421743  .00000425  00000+0  44803-4 0  9990","line2":"2 51868  53.2154 151.6921 0001121  66.2814 293.8296 15.08836426230420","category":"Starlink"},{"name":"STARLINK-31496","line1":"1 59211U 24046L   26116.73212609  .00001598  00000+0  66072-4 0  9997","line2":"2 59211  53.1604 279.5076 0000908  64.2924 295.8171 15.30195232120578","category":"Starlink"},{"name":"FENGYUN 1C DEB","line1":"1 29975U 99025KZ  26104.63165567 -.00000053  00000+0 -50176-5 0  9992","line2":"2 29975  99.3177 152.7218 0113840  38.8974  82.5360 13.98083759981546","category":"Weather"},{"name":"STARLINK-1461","line1":"1 45730U 20038A   23361.90278080  .00005477  00000+0  38636-3 0  9992","line2":"2 45730  53.0530 240.4726 0001382  79.3975 280.7170 15.06395070195204","category":"Starlink"},{"name":"STARLINK-6094","line1":"1 56122U 23046AF  26116.65156612 -.00000142  00000+0  43801-5 0  9997","line2":"2 56122  43.0021 247.5289 0001349 268.6393  91.4304 15.27576681169408","category":"Starlink"},{"name":"2024-199S","line1":"1 61751U 24199S   26117.15752338  .00011581  00000+0  33272-3 0  9991","line2":"2 61751  97.3078 346.9991 0011367 124.9629 235.2684 15.35921350129307","category":"Other"},{"name":"STARLINK-36530","line1":"1 67514U 26012X   26116.96023259  .00017115  00000+0  62975-3 0  9992","line2":"2 67514  43.0023  41.8392 0001165 271.1574  88.9144 15.27593863 15148","category":"Starlink"},{"name":"STARLINK-4541","line1":"1 53427U 22097AR  23362.49452025  .00000169  00000+0  28681-4 0  9992","line2":"2 53427  53.2171 115.3159 0001345  79.4519 280.6625 15.08837601 77063","category":"Starlink"},{"name":"STARLINK-32263","line1":"1 60371U 24138S   26116.90384605 -.00012878  00000+0 -42540-3 0  9991","line2":"2 60371  53.1602  85.3484 0004877  98.7871 261.3682 15.30033912 97915","category":"Starlink"},{"name":"STARLINK-34560","line1":"1 64700U 25142E   26117.20697319  .00006442  00000+0  54707-3 0  9996","line2":"2 64700  70.0019 192.2779 0003719 267.1128  92.9605 14.98337377 46700","category":"Starlink"},{"name":"FENGYUN 1C DEB","line1":"1 31431U 99025BTT 26103.60885571  .00001671  00000+0  10052-2 0  9993","line2":"2 31431  98.5337 349.3961 0133531 112.4025 249.1352 14.03684247962412","category":"Weather"},{"name":"STARLINK-2195","line1":"1 47772U 21017BC  26116.83618920  .00008845  00000+0  29636-3 0  9994","line2":"2 47772  53.1603 353.5079 0001240  84.1659 275.9484 15.31709734285036","category":"Starlink"},{"name":"STARLINK-30191","line1":"1 57413U 23102K   26116.85291333 -.00000370  00000+0 -38953-5 0  9992","line2":"2 57413  43.0020 274.6464 0002001 265.7681  94.2942 15.27588223154331","category":"Starlink"},{"name":"STARLINK-32661","line1":"1 62899U 25024W   26117.18707257  .00036407  00000+0  13251-2 0  9994","line2":"2 62899  43.0016  51.4165 0001551 276.9054  83.1621 15.27603104 69686","category":"Starlink"},{"name":"STARLINK-37161","line1":"1 68565U 26070Z   26115.90307828  .00280169  00000+0  13726-2 0  9993","line2":"2 68565  53.1574 147.5735 0001541  69.9505 290.1684 15.80949384  3727","category":"Starlink"},{"name":"HULIANWANG DIGUI-83","line1":"1 65818U 25220B   26116.93488758  .00000064  00000+0  11566-3 0  9998","line2":"2 65818  86.4988  61.2004 0002131  62.0498 298.0851 13.24406097 28135","category":"Other"},{"name":"IABS R/B","line1":"1 21877U 92006C   26104.03041410 -.00000138  00000+0  00000+0 0  9999","line2":"2 21877   7.5678 321.9060 0657020 101.9879 265.3257  1.10787558 27164","category":"Other"},{"name":"O3B FM14","line1":"1 43233U 18024C   26116.01451709 -.00000027  00000+0  00000+0 0  9991","line2":"2 43233   0.0471   8.2311 0002860  27.6841 324.1024  5.00115703148346","category":"Other"},{"name":"ONEWEB-0580","line1":"1 54648U 22166G   26116.91838208 -.00000034  00000+0 -11303-3 0  9998","line2":"2 54648  87.9215 254.1892 0002044 111.2395 248.8957 13.21824001164774","category":"Other"},{"name":"ONEWEB-0248","line1":"1 48798U 21045AH  26117.15405422 -.00000429  00000+0 -11723-2 0  9990","line2":"2 48798  87.8959 269.3637 0001796  81.1379 278.9954 13.15551952237702","category":"Other"}]}